{
    "links": {
        "self": "http://www.neowsapp.com/rest/v1/neo/3520757?api_key=iIulBulltgU6a56xZRHN4H3l9WmuAYTsLGpBGhQ2"
    },
    "id": "3520757",
    "neo_reference_id": "3520757",
    "name": "(2010 JW39)",
    "designation": "2010 JW39",
    "nasa_jpl_url": "http://ssd.jpl.nasa.gov/sbdb.cgi?sstr=3520757",
    "absolute_magnitude_h": 24.5,
    "estimated_diameter": {
        "kilometers": {
            "estimated_diameter_min": 0.0334622374,
            "estimated_diameter_max": 0.0748238376
        },
        "meters": {
            "estimated_diameter_min": 33.4622374455,
            "estimated_diameter_max": 74.8238376074
        },
        "miles": {
            "estimated_diameter_min": 0.0207924639,
            "estimated_diameter_max": 0.0464933628
        },
        "feet": {
            "estimated_diameter_min": 109.7842471007,
            "estimated_diameter_max": 245.4850393757
        }
    },
    "is_potentially_hazardous_asteroid": false,
    "close_approach_data": [
        {
            "close_approach_date": "1941-06-03",
            "close_approach_date_full": "1941-Jun-03 00:45",
            "epoch_date_close_approach": -901926900000,
            "relative_velocity": {
                "kilometers_per_second": "16.5420423124",
                "kilometers_per_hour": "59551.3523247332",
                "miles_per_hour": "37002.8944486655"
            },
            "miss_distance": {
                "astronomical": "0.357091782",
                "lunar": "138.908703198",
                "kilometers": "53420169.98170434",
                "miles": "33193754.411786292"
            },
            "orbiting_body": "Earth"
        },
        {
            "close_approach_date": "2008-02-06",
            "close_approach_date_full": "2008-Feb-06 21:46",
            "epoch_date_close_approach": 1202334360000,
            "relative_velocity": {
                "kilometers_per_second": "19.7430053942",
                "kilometers_per_hour": "71074.8194190642",
                "miles_per_hour": "44163.1287662513"
            },
            "miss_distance": {
                "astronomical": "0.4557271208",
                "lunar": "177.2778499912",
                "kilometers": "68175806.572912696",
                "miles": "42362481.8300233648"
            },
            "orbiting_body": "Earth"
        },
        {
            "close_approach_date": "2010-04-24",
            "close_approach_date_full": "2010-Apr-24 18:46",
            "epoch_date_close_approach": 1272134760000,
            "relative_velocity": {
                "kilometers_per_second": "6.0298811894",
                "kilometers_per_hour": "21707.5722818525",
                "miles_per_hour": "13488.2412325766"
            },
            "miss_distance": {
                "astronomical": "0.0466513046",
                "lunar": "18.1473574894",
                "kilometers": "6978935.800881202",
                "miles": "4336509.6200445076"
            },
            "orbiting_body": "Earth"
        },
        {
            "close_approach_date": "2096-02-09",
            "close_approach_date_full": "2096-Feb-09 16:50",
            "epoch_date_close_approach": 3979644600000,
            "relative_velocity": {
                "kilometers_per_second": "18.704718018",
                "kilometers_per_hour": "67336.9848646927",
                "miles_per_hour": "41840.5837343975"
            },
            "miss_distance": {
                "astronomical": "0.4204811246",
                "lunar": "163.5671574694",
                "kilometers": "62903080.615364602",
                "miles": "39086161.8449794276"
            },
            "orbiting_body": "Earth"
        }
    ],
    "orbital_data": {
        "orbit_id": "9",
        "orbit_determination_date": "2017-04-06 08:57:34",
        "first_observation_date": "2010-05-10",
        "last_observation_date": "2010-06-06",
        "data_arc_in_days": 27,
        "observations_used": 22,
        "orbit_uncertainty": "7",
        "minimum_orbit_intersection": ".0229125",
        "jupiter_tisserand_invariant": "4.210",
        "epoch_osculation": "2459000.5",
        "eccentricity": ".3900913034170239",
        "semi_major_axis": "1.63727795401884",
        "inclination": "3.00250035203455",
        "ascending_node_longitude": "157.775357188923",
        "orbital_period": "765.2124863100893",
        "perihelion_distance": ".9985900628796728",
        "perihelion_argument": "36.7844113050143",
        "aphelion_distance": "2.275965845158008",
        "perihelion_time": "2459121.114777782195",
        "mean_anomaly": "303.2558658171261",
        "mean_motion": ".4704575610572514",
        "equinox": "J2000",
        "orbit_class": {
            "orbit_class_type": "APO",
            "orbit_class_description": "Near-Earth asteroid orbits which cross the Earth’s orbit similar to that of 1862 Apollo",
            "orbit_class_range": "a (semi-major axis) > 1.0 AU; q (perihelion) < 1.017 AU"
        }
    },
    "is_sentry_object": false
}